0 DELTA 1 DEB
1 21475U 75052FK  13280.85243721  .00000023  00000-0  99506-4 0  6786
2 21475 099.9032 126.3879 0091226 301.1938 102.9566 13.53505189104570
0 DELTA 1 DEB
1 21475U 75052FK  13283.29317818  .00000028  00000-0  10719-3 0  6790
2 21475 099.9028 128.8291 0091212 295.0785 115.8212 13.53505445104909
0 DELTA 1 DEB
1 21475U 75052FK  13285.82334280  .00000021  00000-0  97815-4 0  6801
2 21475 099.9022 131.3596 0091180 288.7708 204.3847 13.53505635105245
0 DELTA 1 DEB
1 21475U 75052FK  13288.53682660  .00000028  00000-0  10682-3 0  6814
2 21475 099.9017 134.0735 0091135 282.0192 106.1860 13.53506256105613
0 DELTA 1 DEB
1 21475U 75052FK  13291.07570090  .00000009  00000-0  80531-4 0  6821
2 21475 099.9014 136.6124 0091134 275.6638 237.2229 13.53506793105950
0 DELTA 1 DEB
1 21475U 75052FK  13293.56285828  .00000026  00000-0  10388-3 0  6831
2 21475 099.9014 139.0996 0091143 269.4491 116.2563 13.53507124106296
